{
  "norad_id": 66013,
  "name": "STARLINK-35307",
  "history": [
    {
      "epoch": "2026-03-28T11:49:16.850496Z",
      "apogee_km": 476.4526712556435,
      "perigee_km": 473.7947026308193,
      "latitude_deg": 3.280859747794383e-05,
      "longitude_deg": 13.393892791181019,
      "height_km": 476.2161040481845,
      "semi_major_axis_km": 6853.260686943231,
      "eccentricity": 0.00019392,
      "inclination_deg": 53.1601,
      "raan_deg": 16.6263,
      "arg_perigee_deg": 98.4481,
      "mean_anomaly_deg": 261.674,
      "mean_motion_rev_day": 15.30230606
    },
    {
      "epoch": "2026-03-29T05:03:52.658496Z",
      "apogee_km": 476.2327923755711,
      "perigee_km": 474.2165333743542,
      "latitude_deg": 1.5632742308009293e-05,
      "longitude_deg": 110.69902355766065,
      "height_km": 476.5046870733378,
      "semi_major_axis_km": 6853.361662874962,
      "eccentricity": 0.0001471,
      "inclination_deg": 53.1599,
      "raan_deg": 13.2888,
      "arg_perigee_deg": 112.2727,
      "mean_anomaly_deg": 247.843,
      "mean_motion_rev_day": 15.30196787
    },
    {
      "epoch": "2026-03-30T04:34:41.141280Z",
      "apogee_km": 476.08659772685223,
      "perigee_km": 474.41985322401706,
      "latitude_deg": -1.031534447987873e-05,
      "longitude_deg": 112.47942945232235,
      "height_km": 476.24920460202304,
      "semi_major_axis_km": 6853.390225475435,
      "eccentricity": 0.0001216,
      "inclination_deg": 53.1605,
      "raan_deg": 8.7369,
      "arg_perigee_deg": 96.7374,
      "mean_anomaly_deg": 263.3765,
      "mean_motion_rev_day": 15.30187221
    },
    {
      "epoch": "2026-03-30T21:49:16.523328Z",
      "apogee_km": 476.33664579593824,
      "perigee_km": 474.0029577637961,
      "latitude_deg": 3.28445332001175e-05,
      "longitude_deg": -150.21461424924948,
      "height_km": 475.6466246853413,
      "semi_major_axis_km": 6853.306801779867,
      "eccentricity": 0.00017026,
      "inclination_deg": 53.1606,
      "raan_deg": 5.3984,
      "arg_perigee_deg": 68.8567,
      "mean_anomaly_deg": 291.2616,
      "mean_motion_rev_day": 15.30215161
    },
    {
      "epoch": "2026-03-31T21:20:04.727904Z",
      "apogee_km": 475.91433119001977,
      "perigee_km": 474.49020728987034,
      "latitude_deg": -5.8853828402501924e-05,
      "longitude_deg": -148.42999423346885,
      "height_km": 476.26254976799225,
      "semi_major_axis_km": 6853.339269239945,
      "eccentricity": 0.0001039,
      "inclination_deg": 53.1613,
      "raan_deg": 0.8496,
      "arg_perigee_deg": 103.1264,
      "mean_anomaly_deg": 256.9852,
      "mean_motion_rev_day": 15.30204287
    },
    {
      "epoch": "2026-04-01T03:36:17.484768Z",
      "apogee_km": 476.0156844539688,
      "perigee_km": 474.3900722348262,
      "latitude_deg": 2.9462984421188585e-05,
      "longitude_deg": 116.04550991962562,
      "height_km": 476.2419457501153,
      "semi_major_axis_km": 6853.339878344397,
      "eccentricity": 0.0001186,
      "inclination_deg": 53.1616,
      "raan_deg": 359.6357,
      "arg_perigee_deg": 99.9674,
      "mean_anomaly_deg": 260.1461,
      "mean_motion_rev_day": 15.30204083
    },
    {
      "epoch": "2026-04-02T10:57:20.976192Z",
      "apogee_km": 476.120279031411,
      "perigee_km": 474.18463595703633,
      "latitude_deg": 9.760556731084371e-06,
      "longitude_deg": -1.5750895725138876,
      "height_km": 476.3978288794272,
      "semi_major_axis_km": 6853.289457494224,
      "eccentricity": 0.00014122,
      "inclination_deg": 53.1607,
      "raan_deg": 353.5672,
      "arg_perigee_deg": 111.0286,
      "mean_anomaly_deg": 249.0866,
      "mean_motion_rev_day": 15.3022097
    },
    {
      "epoch": "2026-04-02T21:55:42.736512Z",
      "apogee_km": 475.7692163830443,
      "perigee_km": 474.4189927908192,
      "latitude_deg": 6.258883738180591e-06,
      "longitude_deg": -168.7375930987372,
      "height_km": 476.18711468471054,
      "semi_major_axis_km": 6853.231104586932,
      "eccentricity": 9.851e-05,
      "inclination_deg": 53.1619,
      "raan_deg": 351.446,
      "arg_perigee_deg": 106.7247,
      "mean_anomaly_deg": 253.3862,
      "mean_motion_rev_day": 15.30240514
    },
    {
      "epoch": "2026-04-03T02:37:52.162464Z",
      "apogee_km": 475.80962271885346,
      "perigee_km": 474.4170422512916,
      "latitude_deg": 2.0431295457360795e-05,
      "longitude_deg": 119.61871303990519,
      "height_km": 475.80276774503415,
      "semi_major_axis_km": 6853.250332485072,
      "eccentricity": 0.0001016,
      "inclination_deg": 53.1616,
      "raan_deg": 350.5347,
      "arg_perigee_deg": 72.5126,
      "mean_anomaly_deg": 287.5986,
      "mean_motion_rev_day": 15.30234074
    },
    {
      "epoch": "2026-04-04T20:57:19.509408Z",
      "apogee_km": 476.2663325093681,
      "perigee_km": 474.0883492118437,
      "latitude_deg": 2.3693854728966456e-05,
      "longitude_deg": -165.17212674409546,
      "height_km": 475.3021878304787,
      "semi_major_axis_km": 6853.314340860606,
      "eccentricity": 0.0001589,
      "inclination_deg": 53.1598,
      "raan_deg": 342.346,
      "arg_perigee_deg": 44.7468,
      "mean_anomaly_deg": 315.3661,
      "mean_motion_rev_day": 15.30212636
    },
    {
      "epoch": "2026-04-05T09:29:45.926016Z",
      "apogee_km": 475.87960871293944,
      "perigee_km": 474.74467753483896,
      "latitude_deg": 5.636923786551416e-05,
      "longitude_deg": 3.7731005018130968,
      "height_km": 476.11837458191087,
      "semi_major_axis_km": 6853.449143123889,
      "eccentricity": 8.28e-05,
      "inclination_deg": 53.1603,
      "raan_deg": 339.9163,
      "arg_perigee_deg": 80.6223,
      "mean_anomaly_deg": 279.4872,
      "mean_motion_rev_day": 15.30167489
    },
    {
      "epoch": "2026-04-05T20:28:08.534784Z",
      "apogee_km": 475.81411603329525,
      "perigee_km": 474.6421905920788,
      "latitude_deg": -1.3409572351923425e-06,
      "longitude_deg": -163.39368942858476,
      "height_km": 475.9686745495527,
      "semi_major_axis_km": 6853.365153312687,
      "eccentricity": 8.55e-05,
      "inclination_deg": 53.1599,
      "raan_deg": 337.7944,
      "arg_perigee_deg": 74.3425,
      "mean_anomaly_deg": 285.767,
      "mean_motion_rev_day": 15.30195618
    },
    {
      "epoch": "2026-04-06T01:10:17.985792Z",
      "apogee_km": 475.7930609321538,
      "perigee_km": 474.5760480905046,
      "latitude_deg": -4.2623528460402806e-05,
      "longitude_deg": 124.96297027162885,
      "height_km": 475.9388823184681,
      "semi_major_axis_km": 6853.321554511329,
      "eccentricity": 8.879e-05,
      "inclination_deg": 53.1598,
      "raan_deg": 336.8836,
      "arg_perigee_deg": 76.2837,
      "mean_anomaly_deg": 283.8262,
      "mean_motion_rev_day": 15.3021022
    },
    {
      "epoch": "2026-04-07T08:31:20.786880Z",
      "apogee_km": 475.97773642418906,
      "perigee_km": 474.3935223651788,
      "latitude_deg": -7.354888883848065e-06,
      "longitude_deg": 7.345791241587885,
      "height_km": 475.91554793458187,
      "semi_major_axis_km": 6853.322629394684,
      "eccentricity": 0.00011558,
      "inclination_deg": 53.1591,
      "raan_deg": 330.8156,
      "arg_perigee_deg": 77.7358,
      "mean_anomaly_deg": 282.3772,
      "mean_motion_rev_day": 15.3020986
    },
    {
      "epoch": "2026-04-07T21:03:46.407744Z",
      "apogee_km": 475.7645231196266,
      "perigee_km": 474.6652454773857,
      "latitude_deg": 4.161126738980465e-05,
      "longitude_deg": 176.29675460164881,
      "height_km": 475.9967669827712,
      "semi_major_axis_km": 6853.351884298506,
      "eccentricity": 8.02e-05,
      "inclination_deg": 53.159,
      "raan_deg": 328.3883,
      "arg_perigee_deg": 77.7382,
      "mean_anomaly_deg": 282.3709,
      "mean_motion_rev_day": 15.30200062
    },
    {
      "epoch": "2026-04-09T18:31:18.978816Z",
      "apogee_km": 475.88216713655765,
      "perigee_km": 474.5019066685263,
      "latitude_deg": 2.9197865420914685e-05,
      "longitude_deg": -156.25430988171715,
      "height_km": 475.9817372868138,
      "semi_major_axis_km": 6853.329036902542,
      "eccentricity": 0.0001007,
      "inclination_deg": 53.159,
      "raan_deg": 319.5899,
      "arg_perigee_deg": 80.9428,
      "mean_anomaly_deg": 279.1687,
      "mean_motion_rev_day": 15.30207714
    },
    {
      "epoch": "2026-04-10T07:03:44.516736Z",
      "apogee_km": 475.6629067526892,
      "perigee_km": 474.7253710528885,
      "latitude_deg": 3.2231524532003834e-05,
      "longitude_deg": 12.697265968655332,
      "height_km": 476.04173224207955,
      "semi_major_axis_km": 6853.331138902789,
      "eccentricity": 6.84e-05,
      "inclination_deg": 53.1581,
      "raan_deg": 317.1629,
      "arg_perigee_deg": 83.7465,
      "mean_anomaly_deg": 276.3614,
      "mean_motion_rev_day": 15.3020701
    },
    {
      "epoch": "2026-04-11T20:41:01.419072Z",
      "apogee_km": 475.91629343456225,
      "perigee_km": 474.46749970582823,
      "latitude_deg": -6.148901093534481e-05,
      "longitude_deg": 159.55031228789124,
      "height_km": 476.1152562623865,
      "semi_major_axis_km": 6853.328896570195,
      "eccentricity": 0.0001057,
      "inclination_deg": 53.1587,
      "raan_deg": 309.8815,
      "arg_perigee_deg": 91.9875,
      "mean_anomaly_deg": 268.1246,
      "mean_motion_rev_day": 15.30207761
    },
    {
      "epoch": "2026-04-12T23:19:55.662528Z",
      "apogee_km": 475.8641465761584,
      "perigee_km": 474.5624212232342,
      "latitude_deg": -2.7021401236114034e-05,
      "longitude_deg": 113.57251191918925,
      "height_km": 476.0729320644508,
      "semi_major_axis_km": 6853.3502838996965,
      "eccentricity": 9.497e-05,
      "inclination_deg": 53.1593,
      "raan_deg": 304.7241,
      "arg_perigee_deg": 86.5832,
      "mean_anomaly_deg": 273.5277,
      "mean_motion_rev_day": 15.30200598
    },
    {
      "epoch": "2026-04-14T19:13:25.250016Z",
      "apogee_km": 475.5387952592582,
      "perigee_km": 474.7917853096169,
      "latitude_deg": 4.197858423177681e-05,
      "longitude_deg": 164.90062191800132,
      "height_km": 476.0354133218358,
      "semi_major_axis_km": 6853.302290284437,
      "eccentricity": 5.45e-05,
      "inclination_deg": 53.1604,
      "raan_deg": 296.228,
      "arg_perigee_deg": 274.6466,
      "mean_anomaly_deg": 85.4473,
      "mean_motion_rev_day": 15.30216672
    }
  ]
}